OSCAR 7 (AO-7)          
1 07530U 74089B   26175.96527499 -.00000036  00000+0  64341-4 0  9996
2 07530 101.9899 189.2930 0012636 115.7171 315.2652 12.53698160361495
PHASE 3B (AO-10)        
1 14129U 83058B   26174.68191131 -.00000085  00000+0  00000+0 0  9993
2 14129  25.9176 218.4895 6008564 117.4551 314.9460  2.05872578295624
UOSAT 2 (UO-11)         
1 14781U 84021B   26174.86625253  .00001092  00000+0  11662-3 0  9993
2 14781  97.8059 140.3663 0008218 151.7331 208.4334 14.90797521258121
LUSAT (LO-19)           
1 20442U 90005G   26175.99605583  .00000102  00000+0  53001-4 0  9997
2 20442  98.8847 198.0168 0011577 177.8494 182.2741 14.34125258903510
EYESAT A (AO-27)        
1 22825U 93061C   26176.18096079  .00000079  00000+0  46862-4 0  9995
2 22825  98.6877 243.5916 0009517  79.1910 281.0343 14.30944177708146
ITAMSAT (IO-26)         
1 22826U 93061D   26176.15798818  .00000084  00000+0  48577-4 0  9994
2 22826  98.6825 243.4869 0009921  64.2862 295.9344 14.31371311708450
RADIO ROSTO (RS15)      
1 23439U 94085A   26176.00931005 -.00000046  00000+0 -10565-3 0  9998
2 23439  64.8179 290.5658 0156204   2.4278 357.7371 11.27583413296784
JAS-2 (FO-29)           
1 24278U 96046B   26176.14811662 -.00000016  00000+0  17093-4 0  9990
2 24278  98.5234  23.9293 0350915  75.8351 288.1508 13.53274732474246
TECHSAT 1B (GO-32)      
1 25397U 98043D   26174.94820125  .00000038  00000+0  36579-4 0  9995
2 25397  99.0070 167.8775 0001389 150.1095 210.0162 14.24429485452293
ISS (ZARYA)             
1 25544U 98067A   26176.18758125  .00009470  00000+0  17725-3 0  9993
2 25544  51.6326 260.4913 0004409 228.8642 131.1966 15.49415960572992
PCSAT (NO-44)           
1 26931U 01043C   26176.19152737  .00000086  00000+0  62978-4 0  9995
2 26931  67.0494 223.5692 0006049 265.0177  95.0235 14.31958480291592
SAUDISAT 1C (SO-50)     
1 27607U 02058C   26176.17970424  .00000928  00000+0  12668-3 0  9997
2 27607  64.5519 104.2569 0075079 260.9817  98.2786 14.83062534265641
CUTE-1 (CO-55)          
1 27844U 03031E   26175.97519230  .00000261  00000+0  13189-3 0  9992
2 27844  98.6736 184.4362 0010007 156.0422 204.1225 14.24339992192781
CUBESAT XI-IV (CO-57)   
1 27848U 03031J   26175.96755847  .00000227  00000+0  11865-3 0  9992
2 27848  98.6767 184.1351 0009537 174.0960 186.0333 14.23624582192483
MOZHAETS 4 (RS22)       
1 27939U 03042A   26176.23465326  .00000817  00000+0  13401-3 0  9999
2 27939  98.3476   0.8208 0010000 240.8202 230.4835 14.73478873216732
CUBESAT XI-V            
1 28895U 05043F   26175.26515780  .00001196  00000+0  19578-3 0  9998
2 28895  98.2991 331.0356 0014129 178.0583 182.0681 14.72647893102798
CUTE-1.7+APD II (CO-65) 
1 32785U 08021C   26176.20348299  .00005562  00000+0  35067-3 0  9996
2 32785  97.8276 157.7888 0008998  15.0140 345.1353 15.09522910986400
SEEDS II (CO-66)        
1 32791U 08021J   26175.96907043  .00019623  00000+0  61750-3 0  9994
2 32791  97.7519 174.2392 0000309 241.1908 118.9302 15.32990296988484
YUBILEINY (RS30)        
1 32953U 08025A   26176.14626787  .00000049  00000+0  28088-3 0  9991
2 32953  82.5048 350.4885 0018612 295.6319  64.2838 12.43179858820680
KKS-1 (KISEKI)          
1 33499U 09002H   26176.15009758  .00001248  00000+0  15989-3 0  9995
2 33499  98.1187  98.7185 0006361 264.3562  95.6926 14.83142417937377
SWISSCUBE               
1 35932U 09051B   26175.01037925  .00000754  00000+0  15859-3 0  9991
2 35932  98.4031  83.0175 0006447 180.0638 180.0563 14.62492428890158
BEESAT-1                
1 35933U 09051C   26174.20193553  .00000616  00000+0  13339-3 0  9990
2 35933  98.3960  81.8178 0004598 195.0342 165.0722 14.61728503890066
ITUPSAT1                
1 35935U 09051E   26175.29429429  .00000610  00000+0  13593-3 0  9992
2 35935  98.4043  82.1112 0006604 208.5040 151.5799 14.60449650889770
XIWANG-1 (HOPE-1)       
1 36122U 09072B   26176.14778986  .00000387  00000+0  11307-2 0  9995
2 36122 100.4024 129.8527 0007029 211.8236 148.2453 13.16441068794058
O/OREOS (USA 219)       
1 37224U 10062C   26176.09849407  .00002094  00000+0  20305-3 0  9997
2 37224  71.9701  62.4189 0012842  46.2089 314.0141 14.93774803117820
JUGNU                   
1 37839U 11058B   26174.94924012  .00000388  00000+0  62833-4 0  9990
2 37839  19.9603 267.3482 0018533 150.5150   4.5959 14.13778314759988
SRMSAT                  
1 37841U 11058D   26176.22718632  .00000368  00000+0  55867-4 0  9992
2 37841  19.9735  10.8048 0011711 292.6715 223.4173 14.11577108758954
STRAND-1                
1 39090U 13009E   26175.92326148  .00000262  00000+0  10254-3 0  9994
2 39090  98.3924 355.9672 0008147 200.1736 159.9130 14.37167384698177
ZACUBE-1 (TSHEPISOSAT)  
1 39417U 13066B   26176.13923660  .00003058  00000+0  23876-3 0  9996
2 39417  97.8051 138.5170 0041882 220.5392 139.2711 15.01227073681925
GOMX-1                  
1 39430U 13066Q   26176.15279361  .00001495  00000+0  22914-3 0  9990
2 39430  97.6486  16.1126 0129890  52.2580 309.0313 14.69483868671087
